INTELSAT 33E            
1 41748C 16053B   22160.00000000  .00000139  00000-0  00000-0 0  1603
2 41748   0.0173  24.7171 0001965  69.3787 223.2501  1.00271847    16
INTELSAT 33E        [PM]
1 41748C 16053B   22162.91221065  .00000139  00000-0  00000-0 0  1623
2 41748   0.0161   6.9572 0002232  98.8165 182.8409  1.00272875    14
INTELSAT 32E            
1 41945C 17007B   22157.00000000 -.00003448  00000-0  00000-0 0  1571
2 41945   0.0014  17.6610 0000585 308.1159 245.4448  1.00270217    18
INTELSAT 32E        [PM]
1 41945C 17007B   22159.18033565 -.00000147  00000-0  00000-0 0  1599
2 41945   0.0000 319.1674 0000671  18.0977 301.0145  1.00273940    13
INTELSAT 32E            
1 41945C 17007B   22160.00000000 -.00000182  00000-0  00000-0 0  1601
2 41945   0.0040  15.8284 0000358   0.7548 197.5878  1.00269618    16
INTELSAT 35E            
1 42818C 17041A   22157.00000000 -.00000148  00000-0  00000-0 0  1573
2 42818   0.0086 262.7961 0001691 159.8635 157.2483  1.00272590    13
INTELSAT 35E            
1 42818C 17041A   22160.00000000 -.00000148  00000-0  00000-0 0  1601
2 42818   0.0173 272.8938 0002045 157.6924 152.2840  1.00271198    12
INTELSAT 35E        [PM]
1 42818C 17041A   22162.69309028 -.00000148  00000-0  00000-0 0  1622
2 42818   0.0228 287.0407 0002171 150.6946  37.2913  1.00270480    15
INTELSAT 37E            
1 42950C 17059A   22157.00000000 -.00000040  00000-0  00000-0 0  1570
2 42950   0.0305 118.4203 0002394 329.6148 148.3616  1.00270623    11
INTELSAT 37E            
1 42950C 17059A   22160.00000000 -.00000039  00000-0  00000-0 0  1606
2 42950   0.0368 126.3235 0002811 320.8363 152.1832  1.00273466    10
INTELSAT 37E        [PM]
1 42950C 17059A   22163.13750000 -.00000051  00000-0  00000-0 0  1632
2 42950   0.0230  66.7655 0002951  29.5997 195.5844  1.00272731    10
AZERSPACE 2 (IS-38)     
1 43632C 18074A   22157.00000000 -.00004587  00000-0  00000-0 0  1576
2 43632   0.0000 321.3622 0001285 105.8228 232.3362  1.00269216    10
AZERSPACE 2 (IS-38)     
1 43632C 18074A   22159.96241898 -.00004497  00000-0  00000-0 0  1597
2 43632   0.0000 340.3698 0001599 101.6404 206.8927  1.00270812    19
HORIZONS-3E             
1 43633C 18074B   22157.00000000  .00000051  00000-0  00000-0 0  1578
2 43633   0.0010  85.2587 0001814 226.2316 111.9020  1.00269013    10
HORIZONS-3E             
1 43633C 18074B   22159.96241898  .00000028  00000-0  00000-0 0  1593
2 43633   0.0127 210.7901 0001593 104.9696  97.0220  1.00268596    12
INTELSAT 39 (IS-39)     
1 44476C 19049B   22157.00000000 -.00003671  00000-0  00000-0 0  1579
2 44476   0.0082  46.1012 0000466 225.8246  44.4212  1.00271043    12
INTELSAT 39 (IS-39) [PM]
1 44476C 19049B   22159.24506944  .00000100  00000-0  00000-0 0  1590
2 44476   0.0000 343.9736 0000256 290.3677 132.4482  1.00271709    11
INTELSAT 39 (IS-39)     
1 44476C 19049B   22159.96241898  .00000229  00000-0  00000-0 0  1595
2 44476   0.0027   8.4674 0000122 269.6193  27.6552  1.00270497    14
GALAXY 30 (G-30)        
1 46114C 20056C   22157.00000000  .00000125  00000-0  00000-0 0  1570
2 46114   0.0331 121.3272 0002037 318.0418  50.0362  1.00270313    14
GALAXY 30 (G-30)        
1 46114C 20056C   22160.00000000  .00000063  00000-0  00000-0 0  1609
2 46114   0.0012 324.3071 0002445 124.2326  43.8185  1.00270092    17
GALAXY 30 (G-30)    [PM]
1 46114C 20056C   22163.52708333 -.00003444  00000-0  00000-0 0  1633
2 46114   0.0128  38.0714 0002549  48.2992 239.2193  1.00270327    18
